{
  "type": "FeatureCollection",
  "features": [
    {
      "type": "Feature",
      "properties": {
        "norad_id": 40691,
        "name": "FENGYUN 1C DEB",
        "group": "fengyun-1c-debris",
        "lat": 61.20934670169421,
        "lon": -147.7828889069002,
        "alt_km": 1008.4002651821738,
        "timestamp": "2025-12-08T23:34:04.259887+00:00",
        "meta_object_name": "FENGYUN 1C DEB",
        "meta_object_id": "1999-025EWX",
        "meta_epoch": "2025-12-03T08:15:02.306016",
        "meta_mean_motion": 13.89944729,
        "meta_eccentricity": 0.0128434,
        "meta_inclination": 99.0573,
        "meta_ra_of_asc_node": 9.8547,
        "meta_arg_of_pericenter": 336.6089,
        "meta_mean_anomaly": 22.9259,
        "meta_ephemeris_type": 0,
        "meta_classification_type": "U",
        "meta_norad_cat_id": 40691,
        "meta_element_set_no": 999,
        "meta_rev_at_epoch": 55305,
        "meta_bstar": 0.00023937,
        "meta_mean_motion_dot": 2.71e-06,
        "meta_mean_motion_ddot": 0,
        "tle_line1": "1 40691U 99025EWX 25337.34377669  .00000271  00000+0  23937-3 0  9996",
        "tle_line2": "2 40691  99.0573   9.8547 0128434 336.6089  22.9259 13.89944729553058"
      },
      "geometry": {
        "type": "Point",
        "coordinates": [
          -147.7828889069002,
          61.20934670169421
        ]
      }
    },
    {
      "type": "Feature",
      "properties": {
        "norad_id": 40695,
        "name": "FENGYUN 1C DEB",
        "group": "fengyun-1c-debris",
        "lat": 77.40053126214126,
        "lon": 52.731142430240986,
        "alt_km": 735.7194713275676,
        "timestamp": "2025-12-08T23:34:04.259898+00:00",
        "meta_object_name": "FENGYUN 1C DEB",
        "meta_object_id": "1999-025EXB",
        "meta_epoch": "2025-12-08T01:41:20.731776",
        "meta_mean_motion": 14.5094297,
        "meta_eccentricity": 0.02812644,
        "meta_inclination": 99.4262,
        "meta_ra_of_asc_node": 99.7179,
        "meta_arg_of_pericenter": 346.8428,
        "meta_mean_anomaly": 12.553,
        "meta_ephemeris_type": 0,
        "meta_classification_type": "U",
        "meta_norad_cat_id": 40695,
        "meta_element_set_no": 999,
        "meta_rev_at_epoch": 31798,
        "meta_bstar": 0.00027064659,
        "meta_mean_motion_dot": 1.711e-05,
        "meta_mean_motion_ddot": 0,
        "tle_line1": "1 40695U 99025EXB 25342.07037884  .00001711  00000+0  27065-3 0  9994",
        "tle_line2": "2 40695  99.4262  99.7179 0281264 346.8428  12.5530 14.50942970317983"
      },
      "geometry": {
        "type": "Point",
        "coordinates": [
          52.731142430240986,
          77.40053126214126
        ]
      }
    },
    {
      "type": "Feature",
      "properties": {
        "norad_id": 40696,
        "name": "FENGYUN 1C DEB",
        "group": "fengyun-1c-debris",
        "lat": -27.09293576417969,
        "lon": -25.53695092705287,
        "alt_km": 862.5552842364223,
        "timestamp": "2025-12-08T23:34:04.259908+00:00",
        "meta_object_name": "FENGYUN 1C DEB",
        "meta_object_id": "1999-025EXC",
        "meta_epoch": "2025-11-26T05:40:29.681760",
        "meta_mean_motion": 13.96727195,
        "meta_eccentricity": 0.00806572,
        "meta_inclination": 98.9548,
        "meta_ra_of_asc_node": 317.4298,
        "meta_arg_of_pericenter": 42.7994,
        "meta_mean_anomaly": 317.9411,
        "meta_ephemeris_type": 0,
        "meta_classification_type": "U",
        "meta_norad_cat_id": 40696,
        "meta_element_set_no": 999,
        "meta_rev_at_epoch": 55449,
        "meta_bstar": 0.0001965233,
        "meta_mean_motion_dot": 2.38e-06,
        "meta_mean_motion_ddot": 0,
        "tle_line1": "1 40696U 99025EXC 25330.23645465  .00000238  00000+0  19652-3 0  9996",
        "tle_line2": "2 40696  98.9548 317.4298 0080657  42.7994 317.9411 13.96727195554498"
      },
      "geometry": {
        "type": "Point",
        "coordinates": [
          -25.53695092705287,
          -27.09293576417969
        ]
      }
    },
    {
      "type": "Feature",
      "properties": {
        "norad_id": 41003,
        "name": "FENGYUN 1C DEB",
        "group": "fengyun-1c-debris",
        "lat": -71.8725893925843,
        "lon": -69.46322926018107,
        "alt_km": 611.4694285339983,
        "timestamp": "2025-12-08T23:34:04.259919+00:00",
        "meta_object_name": "FENGYUN 1C DEB",
        "meta_object_id": "1999-025EXH",
        "meta_epoch": "2025-12-04T00:49:42.134016",
        "meta_mean_motion": 14.71928212,
        "meta_eccentricity": 0.0073367,
        "meta_inclination": 98.9659,
        "meta_ra_of_asc_node": 256.2527,
        "meta_arg_of_pericenter": 319.547,
        "meta_mean_anomaly": 40.0293,
        "meta_ephemeris_type": 0,
        "meta_classification_type": "U",
        "meta_norad_cat_id": 41003,
        "meta_element_set_no": 999,
        "meta_rev_at_epoch": 52292,
        "meta_bstar": 0.0095392716,
        "meta_mean_motion_dot": 0.00062834,
        "meta_mean_motion_ddot": 0,
        "tle_line1": "1 41003U 99025EXH 25338.03451544  .00062834  00000+0  95393-2 0  9993",
        "tle_line2": "2 41003  98.9659 256.2527 0073367 319.5470  40.0293 14.71928212522925"
      },
      "geometry": {
        "type": "Point",
        "coordinates": [
          -69.46322926018107,
          -71.8725893925843
        ]
      }
    },
    {
      "type": "Feature",
      "properties": {
        "norad_id": 41006,
        "name": "FENGYUN 1C DEB",
        "group": "fengyun-1c-debris",
        "lat": -73.00196703292346,
        "lon": -13.270562066344993,
        "alt_km": 1017.9467920288425,
        "timestamp": "2025-12-08T23:34:04.259929+00:00",
        "meta_object_name": "FENGYUN 1C DEB",
        "meta_object_id": "1999-025EXL",
        "meta_epoch": "2025-12-08T08:27:10.950912",
        "meta_mean_motion": 13.85315126,
        "meta_eccentricity": 0.01896295,
        "meta_inclination": 102.3663,
        "meta_ra_of_asc_node": 211.7628,
        "meta_arg_of_pericenter": 18.9212,
        "meta_mean_anomaly": 341.8856,
        "meta_ephemeris_type": 0,
        "meta_classification_type": "U",
        "meta_norad_cat_id": 41006,
        "meta_element_set_no": 999,
        "meta_rev_at_epoch": 57428,
        "meta_bstar": 0.0041566845,
        "meta_mean_motion_dot": 5.374e-05,
        "meta_mean_motion_ddot": 0,
        "tle_line1": "1 41006U 99025EXL 25342.35221008  .00005374  00000+0  41567-2 0  9996",
        "tle_line2": "2 41006 102.3663 211.7628 0189629  18.9212 341.8856 13.85315126574285"
      },
      "geometry": {
        "type": "Point",
        "coordinates": [
          -13.270562066344993,
          -73.00196703292346
        ]
      }
    },
    {
      "type": "Feature",
      "properties": {
        "norad_id": 41007,
        "name": "FENGYUN 1C DEB",
        "group": "fengyun-1c-debris",
        "lat": 79.11432265481746,
        "lon": -104.28729666970237,
        "alt_km": 839.2379335318101,
        "timestamp": "2025-12-08T23:34:04.259939+00:00",
        "meta_object_name": "FENGYUN 1C DEB",
        "meta_object_id": "1999-025EXM",
        "meta_epoch": "2025-11-29T06:55:22.773792",
        "meta_mean_motion": 13.85678237,
        "meta_eccentricity": 0.01723955,
        "meta_inclination": 99.9731,
        "meta_ra_of_asc_node": 359.205,
        "meta_arg_of_pericenter": 79.2855,
        "meta_mean_anomaly": 282.7657,
        "meta_ephemeris_type": 0,
        "meta_classification_type": "U",
        "meta_norad_cat_id": 41007,
        "meta_element_set_no": 999,
        "meta_rev_at_epoch": 57212,
        "meta_bstar": 0.0017167305,
        "meta_mean_motion_dot": 2.158e-05,
        "meta_mean_motion_ddot": 0,
        "tle_line1": "1 41007U 99025EXM 25333.28845803  .00002158  00000+0  17167-2 0  9990",
        "tle_line2": "2 41007  99.9731 359.2050 0172395  79.2855 282.7657 13.85678237572123"
      },
      "geometry": {
        "type": "Point",
        "coordinates": [
          -104.28729666970237,
          79.11432265481746
        ]
      }
    },
    {
      "type": "Feature",
      "properties": {
        "norad_id": 41011,
        "name": "FENGYUN 1C DEB",
        "group": "fengyun-1c-debris",
        "lat": -5.669158888504531,
        "lon": -153.21579737336893,
        "alt_km": 973.5119954654656,
        "timestamp": "2025-12-08T23:34:04.259949+00:00",
        "meta_object_name": "FENGYUN 1C DEB",
        "meta_object_id": "1999-025EXR",
        "meta_epoch": "2025-12-08T09:23:59.644320",
        "meta_mean_motion": 14.4285929,
        "meta_eccentricity": 0.03104498,
        "meta_inclination": 99.1693,
        "meta_ra_of_asc_node": 27.0672,
        "meta_arg_of_pericenter": 11.0145,
        "meta_mean_anomaly": 349.7637,
        "meta_ephemeris_type": 0,
        "meta_classification_type": "U",
        "meta_norad_cat_id": 41011,
        "meta_element_set_no": 999,
        "meta_rev_at_epoch": 57094,
        "meta_bstar": 0.00081488264,
        "meta_mean_motion_dot": 4.825e-05,
        "meta_mean_motion_ddot": 0,
        "tle_line1": "1 41011U 99025EXR 25342.39166255  .00004825  00000+0  81488-3 0  9995",
        "tle_line2": "2 41011  99.1693  27.0672 0310449  11.0145 349.7637 14.42859290570941"
      },
      "geometry": {
        "type": "Point",
        "coordinates": [
          -153.21579737336893,
          -5.669158888504531
        ]
      }
    }
  ]
}